{"type":"FeatureCollection","xSupplyMesh":{"generated":true,"fixtureSchemaVersion":1,"provider":"openrouteservice","profile":"driving-hgv","generatedAt":"2026-08-29T14:31:47.453Z","manifestRevision":"799fa77b21d28766073a9140e8f90a0a4f0491df7660e2d9073c782e22f29eee","currentRouteSourceRevision":"16e9952c577cfcc7de3e1cd8bfbc1ea068557c049d5674052b3b1e74fcacc439","sourceRevision":"688161cb725d59117a55243b78e41b8191e5b0d718f7eff0c51fe783e680fdd0","alternativeCount":1},"features":[{"type":"Feature","properties":{"relation":{"vehicleId":"vehicle-011","currentRouteId":"route-011","avoidsRiskId":"restriction-height-3.9","alternativeRouteId":"alternative-route-011-clearance-v1"},"logicalEndpoints":[[-4.0273,39.8628],[-3.7496,40.4637]],"returnedEndpoints":[[-4.027341,39.862774],[-3.748592,40.464081]],"snapDistancesMeters":[4.539176216240353,95.21955656789504],"summary":{"distanceMeters":80298.9,"durationSeconds":5282.5},"coordinateCount":743,"avoidance":{"shape":"geodesic-circle","radiusMeters":250,"steps":64,"polygon":{"type":"Polygon","coordinates":[[[-3.897481,40.15148030090931],[-3.8977693158201374,40.151469474368405],[-3.8980548547277754,40.15143709902146],[-3.8983348665641095,40.15138348669129],[-3.8986066544196807,40.15130915374344],[-3.8988676006163985,40.15121481611149],[-3.8991151919253797,40.151101382399595],[-3.899347043777417,40.150969945129084],[-3.899560923232662,40.15082177021321],[-3.8997547704881246,40.15065828476198],[-3.89992671871573,40.1504810633342],[-3.9000751120398625,40.15029181276959],[-3.9001985214812795,40.1500923557472],[-3.900295758713981,40.149884613228366],[-3.900365887502739,40.14967058595375],[-3.9004082327113885,40.14945233517252],[-3.900422386795432,40.149231962789464],[-3.900408213716822,40.14901159112141],[-3.900365850243558,40.148793342457665],[-3.900295704622034,40.148579318621664],[-3.9001984526352897,40.14837158073045],[-3.900075031085543,40.14817212934681],[-3.899926628764109,40.14798288521541],[-3.899754674995993,40.14780567076807],[-3.8995608258697296,40.14764219257625],[-3.899346948285285,40.1474940249198],[-3.8991151019737584,40.147362594629726],[-3.898867519662079,40.14724916735104],[-3.898606585573691,40.147154835357846],[-3.898334812472162,40.147080507037614],[-3.8980548174685934,40.14702689814606],[-3.8977692968255715,40.146994524916614],[-3.897481,40.14698369909069],[-3.897192703174428,40.146994524916614],[-3.896907182531406,40.14702689814606],[-3.896627187527837,40.147080507037614],[-3.896355414426309,40.147154835357846],[-3.8960944803379207,40.14724916735104],[-3.8958468980262406,40.147362594629726],[-3.8956150517147146,40.1474940249198],[-3.8954011741302703,40.14764219257625],[-3.8952073250040065,40.14780567076807],[-3.89503537123589,40.14798288521541],[-3.8948869689144563,40.14817212934681],[-3.89476354736471,40.14837158073045],[-3.8946662953779656,40.148579318621664],[-3.894596149756441,40.148793342457665],[-3.894553786283177,40.14901159112141],[-3.894539613204567,40.149231962789464],[-3.894553767288611,40.14945233517252],[-3.8945961124972603,40.14967058595375],[-3.8946662412860187,40.149884613228366],[-3.89476347851872,40.1500923557472],[-3.8948868879601366,40.15029181276959],[-3.8950352812842692,40.1504810633342],[-3.8952072295118745,40.15065828476198],[-3.895401076767338,40.15082177021321],[-3.8956149562225826,40.150969945129084],[-3.8958468080746202,40.151101382399595],[-3.896094399383601,40.15121481611149],[-3.8963553455803184,40.15130915374344],[-3.8966271334358895,40.15138348669129],[-3.896907145272224,40.15143709902146],[-3.8971926841798616,40.151469474368405],[-3.897481,40.15148030090931]]]},"minimumClearanceMeters":5724.858608188861}},"geometry":{"type":"LineString","coordinates":[[-4.027341,39.862774],[-4.027454,39.862881],[-4.027486,39.862934],[-4.027811,39.863744],[-4.02813,39.864556],[-4.028447,39.865391],[-4.028559,39.86567],[-4.028657,39.865908],[-4.028754,39.86617],[-4.02877,39.866209],[-4.028947,39.866676],[-4.029179,39.867269],[-4.029348,39.867728],[-4.02941,39.867931],[-4.029357,39.868087],[-4.02929,39.86811],[-4.029186,39.868187],[-4.028933,39.868106],[-4.028618,39.867979],[-4.027812,39.867643],[-4.027574,39.867509],[-4.02757,39.867481],[-4.027431,39.867397],[-4.027287,39.86735],[-4.027088,39.867335],[-4.026972,39.867374],[-4.026912,39.867454],[-4.026928,39.867495],[-4.026865,39.867706],[-4.026835,39.867759],[-4.026783,39.867795],[-4.025684,39.868213],[-4.02566,39.868209],[-4.025551,39.868225],[-4.025477,39.868288],[-4.025462,39.868329],[-4.025206,39.868414],[-4.025127,39.868443],[-4.024923,39.868513],[-4.024478,39.868661],[-4.024117,39.868755],[-4.023937,39.868778],[-4.022686,39.868818],[-4.021954,39.868842],[-4.021753,39.868862],[-4.021651,39.86887],[-4.021566,39.868851],[-4.02152,39.868796],[-4.021462,39.868763],[-4.021345,39.86874],[-4.021291,39.868745],[-4.021195,39.86878],[-4.02112,39.86886],[-4.021106,39.868908],[-4.021113,39.868972],[-4.020903,39.86927],[-4.020602,39.869814],[-4.02061,39.869882],[-4.020646,39.869949],[-4.020692,39.869988],[-4.020785,39.870031],[-4.02082,39.870049],[-4.020919,39.870106],[-4.020968,39.870168],[-4.020969,39.870288],[-4.020896,39.871881],[-4.020854,39.872689],[-4.020828,39.87353],[-4.020816,39.873596],[-4.020756,39.873699],[-4.020687,39.873771],[-4.020591,39.873855],[-4.020574,39.873904],[-4.020595,39.874002],[-4.020684,39.874078],[-4.020769,39.874212],[-4.020794,39.874343],[-4.020683,39.876478],[-4.020655,39.877063],[-4.020606,39.877526],[-4.020516,39.877932],[-4.0204,39.878422],[-4.020335,39.878588],[-4.020232,39.87882],[-4.019959,39.879329],[-4.019835,39.879621],[-4.019748,39.880007],[-4.019727,39.880202],[-4.019714,39.881012],[-4.019617,39.881335],[-4.01932,39.881974],[-4.019267,39.882206],[-4.019148,39.882494],[-4.019006,39.88306],[-4.018971,39.883523],[-4.019081,39.885356],[-4.019095,39.886688],[-4.019073,39.887368],[-4.019026,39.887937],[-4.018948,39.888464],[-4.018716,39.889363],[-4.017678,39.89242],[-4.017429,39.893213],[-4.017088,39.894705],[-4.016838,39.895556],[-4.016045,39.897782],[-4.015861,39.898382],[-4.015253,39.900149],[-4.01513,39.900436],[-4.014924,39.90101],[-4.013932,39.902983],[-4.012833,39.905111],[-4.012606,39.905493],[-4.011732,39.906704],[-4.011474,39.907153],[-4.010363,39.909493],[-4.008678,39.912968],[-4.008075,39.914274],[-4.004041,39.92274],[-4.00331,39.924271],[-4.003039,39.924882],[-4.002729,39.925654],[-4.001774,39.929355],[-4.001508,39.930305],[-4.001373,39.930712],[-4.000872,39.931883],[-3.999885,39.934189],[-3.999621,39.934859],[-3.999475,39.935383],[-3.999295,39.936178],[-3.999177,39.936606],[-3.999067,39.936915],[-3.998813,39.937509],[-3.998528,39.938033],[-3.998168,39.938617],[-3.997856,39.939073],[-3.996319,39.941091],[-3.995517,39.942357],[-3.995298,39.942668],[-3.993864,39.944518],[-3.993116,39.945472],[-3.992722,39.946007],[-3.992509,39.94635],[-3.992333,39.946677],[-3.99195,39.947558],[-3.991103,39.94967],[-3.990835,39.950172],[-3.990388,39.950813],[-3.988814,39.952981],[-3.987676,39.954567],[-3.987174,39.955226],[-3.986853,39.955605],[-3.985865,39.956699],[-3.985533,39.957117],[-3.984686,39.958401],[-3.984097,39.959451],[-3.983583,39.960199],[-3.981349,39.962938],[-3.979757,39.965208],[-3.978225,39.967428],[-3.977323,39.968622],[-3.976399,39.969808],[-3.975347,39.971271],[-3.968347,39.980927],[-3.967922,39.981508],[-3.964327,39.986514],[-3.963183,39.98807],[-3.96165,39.990204],[-3.961322,39.990633],[-3.960914,39.991231],[-3.960464,39.991892],[-3.959918,39.992764],[-3.959512,39.993494],[-3.958961,39.994652],[-3.958569,39.99561],[-3.958225,39.996637],[-3.957946,39.997668],[-3.957817,39.998254],[-3.95768,39.999124],[-3.957571,40.000071],[-3.957526,40.000874],[-3.957527,40.001637],[-3.957557,40.002375],[-3.957605,40.002965],[-3.958102,40.006652],[-3.958156,40.007531],[-3.958149,40.008253],[-3.958071,40.008965],[-3.958,40.009367],[-3.957922,40.009683],[-3.957732,40.010268],[-3.957511,40.010825],[-3.95737,40.011114],[-3.957226,40.011397],[-3.956857,40.011997],[-3.95636,40.012673],[-3.956082,40.012992],[-3.955484,40.0136],[-3.95516,40.013887],[-3.954803,40.014174],[-3.954261,40.014576],[-3.953661,40.014961],[-3.952913,40.015375],[-3.95211,40.015765],[-3.950661,40.016384],[-3.942846,40.019486],[-3.940951,40.020302],[-3.939977,40.020771],[-3.939097,40.021223],[-3.938263,40.021675],[-3.937553,40.02209],[-3.936859,40.022507],[-3.936168,40.022957],[-3.935501,40.023404],[-3.934391,40.024199],[-3.933559,40.024851],[-3.932202,40.026016],[-3.931101,40.027057],[-3.930121,40.028075],[-3.928504,40.029952],[-3.926167,40.032731],[-3.925661,40.033326],[-3.924911,40.034257],[-3.923776,40.035582],[-3.922234,40.037445],[-3.919874,40.040223],[-3.919253,40.04096],[-3.918868,40.041428],[-3.917727,40.042807],[-3.916438,40.044307],[-3.915764,40.045138],[-3.914836,40.046227],[-3.914541,40.046577],[-3.913243,40.048095],[-3.910616,40.051232],[-3.908121,40.054164],[-3.906537,40.056045],[-3.906354,40.056274],[-3.904936,40.057961],[-3.904185,40.058813],[-3.903451,40.059563],[-3.902691,40.06031],[-3.902444,40.060523],[-3.901753,40.061196],[-3.896119,40.066686],[-3.89292,40.069806],[-3.892488,40.070161],[-3.892186,40.070377],[-3.891537,40.070749],[-3.891206,40.070906],[-3.890888,40.071035],[-3.890537,40.07115],[-3.890104,40.071268],[-3.889166,40.071462],[-3.885461,40.072169],[-3.88297,40.072644],[-3.879734,40.073278],[-3.876,40.073982],[-3.872691,40.074628],[-3.869554,40.075243],[-3.869085,40.075354],[-3.868634,40.075489],[-3.86831,40.075593],[-3.867535,40.075871],[-3.866869,40.076177],[-3.866277,40.076483],[-3.865916,40.076695],[-3.865547,40.076929],[-3.864897,40.077407],[-3.864413,40.077821],[-3.863964,40.078265],[-3.863448,40.078861],[-3.86301,40.079479],[-3.860283,40.084193],[-3.85976,40.085156],[-3.85902,40.086414],[-3.858453,40.087422],[-3.856241,40.091307],[-3.855603,40.092331],[-3.854909,40.093357],[-3.850956,40.098836],[-3.85032,40.099707],[-3.849642,40.100681],[-3.849187,40.101245],[-3.848701,40.101786],[-3.848093,40.10239],[-3.847349,40.103042],[-3.846546,40.103674],[-3.845847,40.104147],[-3.845393,40.104433],[-3.844172,40.105143],[-3.843124,40.105851],[-3.842457,40.106375],[-3.841689,40.107046],[-3.84108,40.107669],[-3.840519,40.108289],[-3.839804,40.109222],[-3.839341,40.109942],[-3.838938,40.11068],[-3.838609,40.111353],[-3.838244,40.112316],[-3.838006,40.113044],[-3.837532,40.114306],[-3.837224,40.11523],[-3.83456,40.122707],[-3.834239,40.123607],[-3.833466,40.125839],[-3.832923,40.127335],[-3.832597,40.128149],[-3.832547,40.128274],[-3.831827,40.129913],[-3.831329,40.131047],[-3.829696,40.13473],[-3.829155,40.135816],[-3.827996,40.137945],[-3.827635,40.13871],[-3.82725,40.1396],[-3.82695,40.140374],[-3.826517,40.14169],[-3.826026,40.14358],[-3.825941,40.144105],[-3.825787,40.144717],[-3.825479,40.145695],[-3.825332,40.146084],[-3.825179,40.146427],[-3.824923,40.147013],[-3.823076,40.150909],[-3.822738,40.151588],[-3.822405,40.152167],[-3.821818,40.153122],[-3.82153,40.153662],[-3.821271,40.154193],[-3.818862,40.159259],[-3.818604,40.159859],[-3.818084,40.161345],[-3.817602,40.162416],[-3.816958,40.163785],[-3.81667,40.164357],[-3.81586,40.165763],[-3.815676,40.166097],[-3.81476,40.167962],[-3.813815,40.169945],[-3.806266,40.185929],[-3.805829,40.186821],[-3.805162,40.188284],[-3.804908,40.188745],[-3.804669,40.189111],[-3.804411,40.189453],[-3.804123,40.189791],[-3.803784,40.190124],[-3.80347,40.190401],[-3.803163,40.19064],[-3.802657,40.190978],[-3.801671,40.191502],[-3.801284,40.191685],[-3.79273,40.195375],[-3.79152,40.195934],[-3.790894,40.196305],[-3.79049,40.196612],[-3.790289,40.196779],[-3.79013,40.196924],[-3.789845,40.197232],[-3.789563,40.19759],[-3.789329,40.197969],[-3.789137,40.198377],[-3.78899,40.198784],[-3.78886,40.199268],[-3.788842,40.199773],[-3.788867,40.200201],[-3.788963,40.200717],[-3.791157,40.208826],[-3.791277,40.209219],[-3.791352,40.209622],[-3.7914,40.21008],[-3.791386,40.210485],[-3.79135,40.210804],[-3.791265,40.211235],[-3.791189,40.211488],[-3.79099,40.211986],[-3.790775,40.212403],[-3.790507,40.21281],[-3.789312,40.214269],[-3.786753,40.217314],[-3.786327,40.217824],[-3.785597,40.218728],[-3.785307,40.219123],[-3.785016,40.219566],[-3.784796,40.219945],[-3.784386,40.220784],[-3.784256,40.221102],[-3.784053,40.221726],[-3.783916,40.222299],[-3.783815,40.222914],[-3.783461,40.226144],[-3.783356,40.226944],[-3.78308,40.22974],[-3.782827,40.232066],[-3.782677,40.232944],[-3.782489,40.233805],[-3.78218,40.234853],[-3.78185,40.235881],[-3.780143,40.241002],[-3.779977,40.241487],[-3.779861,40.241893],[-3.77925,40.243744],[-3.778724,40.245255],[-3.778271,40.246546],[-3.778048,40.247052],[-3.777768,40.247559],[-3.777496,40.247953],[-3.777208,40.248319],[-3.776787,40.248764],[-3.776327,40.249171],[-3.775937,40.24947],[-3.77568,40.249649],[-3.774859,40.250127],[-3.774447,40.25032],[-3.773933,40.250532],[-3.773469,40.250701],[-3.772822,40.250907],[-3.768798,40.251979],[-3.767756,40.252286],[-3.767017,40.252548],[-3.766065,40.253016],[-3.765614,40.253289],[-3.76529,40.253526],[-3.764819,40.253904],[-3.764352,40.254352],[-3.764145,40.254594],[-3.763967,40.254838],[-3.763678,40.255283],[-3.763331,40.255897],[-3.763143,40.256302],[-3.762516,40.257908],[-3.762474,40.258008],[-3.76218,40.25869],[-3.761909,40.259219],[-3.761384,40.260047],[-3.760468,40.26138],[-3.760428,40.261439],[-3.760386,40.261509],[-3.759037,40.2635],[-3.758773,40.263864],[-3.757633,40.265553],[-3.756946,40.266597],[-3.756641,40.267021],[-3.756018,40.267977],[-3.754764,40.269831],[-3.754673,40.269957],[-3.753575,40.271592],[-3.753516,40.271704],[-3.753029,40.272424],[-3.752417,40.273333],[-3.750573,40.276041],[-3.749249,40.27801],[-3.748885,40.278512],[-3.747895,40.280007],[-3.746913,40.281435],[-3.746222,40.282487],[-3.745166,40.284039],[-3.744357,40.285253],[-3.744117,40.285586],[-3.743349,40.286727],[-3.741392,40.289841],[-3.740362,40.291363],[-3.739703,40.292339],[-3.739588,40.292507],[-3.737881,40.295092],[-3.737682,40.295534],[-3.737524,40.296021],[-3.737456,40.296707],[-3.737485,40.297094],[-3.737607,40.297782],[-3.73822,40.30024],[-3.738775,40.302395],[-3.739088,40.303732],[-3.739286,40.304484],[-3.740459,40.309305],[-3.740502,40.309842],[-3.740447,40.310258],[-3.74042,40.310513],[-3.740192,40.31114],[-3.739954,40.311525],[-3.739692,40.311887],[-3.738247,40.313589],[-3.737313,40.314664],[-3.734708,40.31768],[-3.731851,40.320972],[-3.730669,40.322379],[-3.729341,40.323852],[-3.728656,40.324598],[-3.728111,40.325221],[-3.727174,40.326349],[-3.725944,40.327794],[-3.725548,40.328373],[-3.725436,40.328614],[-3.725334,40.3289],[-3.725231,40.329293],[-3.725193,40.329676],[-3.72518,40.330294],[-3.725143,40.330763],[-3.725019,40.331639],[-3.724829,40.333321],[-3.724711,40.334067],[-3.724674,40.33436],[-3.724635,40.334753],[-3.724617,40.33493],[-3.724562,40.335538],[-3.724493,40.336452],[-3.72416,40.339472],[-3.724053,40.340248],[-3.724035,40.340398],[-3.723965,40.340823],[-3.723889,40.341447],[-3.723863,40.341693],[-3.723559,40.343999],[-3.723496,40.344436],[-3.723479,40.34456],[-3.723461,40.344759],[-3.723204,40.346233],[-3.722776,40.34882],[-3.722551,40.349906],[-3.722383,40.351164],[-3.722232,40.3523],[-3.722158,40.35304],[-3.721976,40.354259],[-3.721949,40.354511],[-3.721767,40.356043],[-3.721539,40.357701],[-3.721108,40.361015],[-3.720883,40.362847],[-3.720829,40.363271],[-3.720767,40.363774],[-3.72068,40.364322],[-3.720655,40.364512],[-3.720475,40.366082],[-3.720378,40.36745],[-3.720342,40.367814],[-3.720308,40.368149],[-3.720266,40.368651],[-3.71998,40.371099],[-3.719683,40.373366],[-3.719587,40.374162],[-3.719292,40.376677],[-3.718891,40.379798],[-3.718824,40.380307],[-3.718813,40.380712],[-3.718788,40.380928],[-3.718685,40.38155],[-3.718636,40.381724],[-3.717876,40.384228],[-3.717723,40.384622],[-3.717493,40.385085],[-3.717168,40.385512],[-3.716901,40.385785],[-3.715103,40.387495],[-3.714817,40.387717],[-3.714298,40.388217],[-3.71371,40.388814],[-3.71306,40.389313],[-3.712428,40.389703],[-3.71027,40.390571],[-3.708937,40.391124],[-3.708502,40.391318],[-3.708082,40.391536],[-3.707686,40.391798],[-3.707318,40.392114],[-3.707054,40.39235],[-3.706544,40.392883],[-3.706214,40.393232],[-3.70604,40.393436],[-3.706013,40.393461],[-3.705162,40.394401],[-3.704118,40.395557],[-3.704073,40.395604],[-3.703943,40.395675],[-3.70377,40.395844],[-3.70358,40.395936],[-3.703454,40.39596],[-3.703316,40.395953],[-3.703135,40.395905],[-3.702969,40.39583],[-3.702852,40.395747],[-3.702753,40.395656],[-3.702642,40.395501],[-3.702586,40.395349],[-3.702578,40.395039],[-3.702718,40.394917],[-3.702896,40.394878],[-3.703046,40.394869],[-3.703333,40.39491],[-3.703552,40.395017],[-3.704558,40.395451],[-3.705312,40.395676],[-3.705794,40.395771],[-3.707506,40.396295],[-3.709,40.396837],[-3.709779,40.39717],[-3.710881,40.397814],[-3.71129,40.398028],[-3.712535,40.39889],[-3.713144,40.399335],[-3.713638,40.399646],[-3.71423,40.399906],[-3.715809,40.400226],[-3.716838,40.400289],[-3.718143,40.400167],[-3.719061,40.400152],[-3.719399,40.400172],[-3.71973,40.40024],[-3.720285,40.400401],[-3.720671,40.400561],[-3.72114,40.400854],[-3.721363,40.401089],[-3.721525,40.401306],[-3.721676,40.401551],[-3.72177,40.401769],[-3.721824,40.401947],[-3.721931,40.402482],[-3.722226,40.404007],[-3.722329,40.40463],[-3.722345,40.404798],[-3.722251,40.405659],[-3.722072,40.406397],[-3.721785,40.407046],[-3.721402,40.407992],[-3.721384,40.408706],[-3.721442,40.409376],[-3.721658,40.409906],[-3.72209,40.411198],[-3.722461,40.412172],[-3.722542,40.412501],[-3.722591,40.412812],[-3.722583,40.413174],[-3.722505,40.413488],[-3.722365,40.413759],[-3.722314,40.413994],[-3.722328,40.414325],[-3.722398,40.414633],[-3.722446,40.415139],[-3.722416,40.415591],[-3.722354,40.415993],[-3.721691,40.418099],[-3.721605,40.418475],[-3.721557,40.418894],[-3.721555,40.419282],[-3.721618,40.419727],[-3.721704,40.420051],[-3.721888,40.420395],[-3.72211,40.420708],[-3.722475,40.420969],[-3.722879,40.421174],[-3.725652,40.422336],[-3.726848,40.422758],[-3.727997,40.423174],[-3.728402,40.423357],[-3.728877,40.423628],[-3.7336,40.426503],[-3.734015,40.42679],[-3.734338,40.427109],[-3.736582,40.429838],[-3.736791,40.430155],[-3.736971,40.430576],[-3.7371,40.430996],[-3.737552,40.432425],[-3.737772,40.433108],[-3.737998,40.433801],[-3.738191,40.434464],[-3.738243,40.434848],[-3.738233,40.435226],[-3.738188,40.435573],[-3.737994,40.436295],[-3.737776,40.437205],[-3.737744,40.437637],[-3.737766,40.437886],[-3.737854,40.438347],[-3.737919,40.438558],[-3.738436,40.439538],[-3.738621,40.439932],[-3.738721,40.440193],[-3.738799,40.440465],[-3.738893,40.441082],[-3.739001,40.442194],[-3.7391,40.442778],[-3.739789,40.445865],[-3.740043,40.446549],[-3.741033,40.448348],[-3.741225,40.448787],[-3.741451,40.449446],[-3.741676,40.450011],[-3.741847,40.4503],[-3.74305,40.452017],[-3.74328,40.452431],[-3.743385,40.45275],[-3.743453,40.453124],[-3.74344,40.453808],[-3.743377,40.454686],[-3.743425,40.455152],[-3.74357,40.455618],[-3.74377,40.456027],[-3.744465,40.457243],[-3.744783,40.457859],[-3.744964,40.458313],[-3.745088,40.45889],[-3.745172,40.459356],[-3.745268,40.459701],[-3.745477,40.460281],[-3.745544,40.460418],[-3.745799,40.460825],[-3.745962,40.461035],[-3.746301,40.461422],[-3.747013,40.462189],[-3.747369,40.4626],[-3.74796,40.463441],[-3.748518,40.464279],[-3.748758,40.464718],[-3.748937,40.465148],[-3.749138,40.465798],[-3.749227,40.46617],[-3.749354,40.466644],[-3.74934,40.466891],[-3.749477,40.467473],[-3.749487,40.467827],[-3.74947,40.468479],[-3.749486,40.468673],[-3.749519,40.468744],[-3.749557,40.468784],[-3.749658,40.468839],[-3.749767,40.468842],[-3.750136,40.46879],[-3.750222,40.468764],[-3.750303,40.468728],[-3.750378,40.468613],[-3.750381,40.468548],[-3.749912,40.467654],[-3.749766,40.467264],[-3.749643,40.467027],[-3.749546,40.466613],[-3.749341,40.465838],[-3.749117,40.465126],[-3.748919,40.464649],[-3.748659,40.464183],[-3.748592,40.464081]]}}]}
